[{"OBJECT_NAME":"JILIN-1 05","OBJECT_ID":"2017-074B","EPOCH":"2026-03-09T21:56:30.612480","MEAN_MOTION":15.3245271,"ECCENTRICITY":0.00045948,"INCLINATION":97.4781,"RA_OF_ASC_NODE":173.8936,"ARG_OF_PERICENTER":206.4038,"MEAN_ANOMALY":153.6971,"EPHEMERIS_TYPE":0,"CLASSIFICATION_TYPE":"U","NORAD_CAT_ID":43023,"ELEMENT_SET_NO":999,"REV_AT_EPOCH":45879,"BSTAR":0.00026108793,"MEAN_MOTION_DOT":8.104e-5,"MEAN_MOTION_DDOT":0},{"OBJECT_NAME":"STARLINK-31826","OBJECT_ID":"2024-091R","EPOCH":"2026-03-09T16:39:52.758432","MEAN_MOTION":15.30197191,"ECCENTRICITY":0.00011019,"INCLINATION":53.161,"RA_OF_ASC_NODE":26.9672,"ARG_OF_PERICENTER":74.8938,"MEAN_ANOMALY":285.2185,"EPHEMERIS_TYPE":0,"CLASSIFICATION_TYPE":"U","NORAD_CAT_ID":59768,"ELEMENT_SET_NO":999,"REV_AT_EPOCH":10300,"BSTAR":-1.520888e-5,"MEAN_MOTION_DOT":-8.09e-6,"MEAN_MOTION_DDOT":0}]
